NORAD_CAT_ID,OBJECT_NAME,OBJECT_TYPE,EPOCH,MEAN_MOTION,ECCENTRICITY,INCLINATION,RA_OF_ASC_NODE,ARG_OF_PERICENTER,MEAN_ANOMALY,BSTAR,MEAN_MOTION_DOT,MEAN_MOTION_DDOT,TLE_LINE0,TLE_LINE1,TLE_LINE2,SEMIMAJOR_AXIS,PERIOD,APOGEE,PERIGEE,DECAYED
53401.0,STARLINK-4525,PAYLOAD,2023-02-09 10:57:17,15.0883828,0.0001244,53.2156,131.0087,90.5931,269.5204,3.077e-05,2.02e-06,0.0,0 STARLINK-4525,1 53401U 22097P   23040.45644843  .00000202  00000-0  30770-4 0  9995,2 53401  53.2156 131.0087 0001244  90.5931 269.5204 15.08838280 28792,6917.886,95.438,540.611,538.89,0.0
53401.0,STARLINK-4525,PAYLOAD,2023-02-10 01:15:45,15.0884048,0.000146,53.2167,128.331,98.4208,261.6949,0.00013731,1.898e-05,0.0,0 STARLINK-4525,1 53401U 22097P   23041.05260543  .00001898  00000-0  13731-3 0  9992,2 53401  53.2167 128.3310 0001460  98.4208 261.6949 15.08840480 28880,6917.879,95.438,540.754,538.734,0.0
53401.0,STARLINK-4525,PAYLOAD,2023-02-10 10:48:02,15.08868398,0.0001328,53.2159,126.5494,78.5937,281.5204,0.00056934,8.792e-05,0.0,0 STARLINK-4525,1 53401U 22097P   23041.45003170  .00008792  00000-0  56934-3 0  9999,2 53401  53.2159 126.5494 0001328  78.5937 281.5204 15.08868398 28451,6917.794,95.436,540.577,538.74,0.0
53401.0,STARLINK-4525,PAYLOAD,2023-02-11 02:41:55,15.08841163,0.000127,53.214,123.5741,101.2151,258.8984,0.00016023,2.263e-05,0.0,0 STARLINK-4525,1 53401U 22097P   23042.11244415  .00002263  00000-0  16023-3 0  9994,2 53401  53.2140 123.5741 0001270 101.2151 258.8984 15.08841163 28555,6917.877,95.437,540.62,538.863,0.0
53401.0,STARLINK-4525,PAYLOAD,2023-02-11 07:28:04,15.08831553,6.69e-05,53.2187,122.6831,77.0108,283.0959,6.6625e-05,7.73e-06,0.0,0 STARLINK-4525,1 53401U 22097P   23042.31116700  .00000773  00000-0  66625-4 0  9999,2 53401  53.2187 122.6831 0000669  77.0108 283.0959 15.08831553 28586,6917.906,95.438,540.234,539.308,0.0
53401.0,STARLINK-4525,PAYLOAD,2023-02-11 12:14:13,15.0884372,0.0001384,53.2171,121.7867,120.7526,239.3603,8.2381e-05,1.024e-05,0.0,0 STARLINK-4525,1 53401U 22097P   23042.50988207  .00001024  00000-0  82381-4 0  9996,2 53401  53.2171 121.7867 0001384 120.7526 239.3603 15.08843720 29101,6917.869,95.437,540.691,538.777,0.0
53401.0,STARLINK-4525,PAYLOAD,2023-02-12 07:18:53,15.08827057,0.0001151,53.2172,118.2238,95.4753,264.637,-0.00024011,-4.106e-05,0.0,0 STARLINK-4525,1 53401U 22097P   23043.30478355 -.00004106  00000-0 -24011-3 0  9994,2 53401  53.2172 118.2238 0001151  95.4753 264.6370 15.08827057 28732,6917.92,95.438,540.581,538.989,0.0
53401.0,STARLINK-4525,PAYLOAD,2023-02-12 12:05:01,15.08838596,0.0001071,53.2182,117.3346,93.0129,267.0985,-0.00013671,-2.463e-05,0.0,0 STARLINK-4525,1 53401U 22097P   23043.50349406 -.00002463  00000-0 -13671-3 0  9994,2 53401  53.2182 117.3346 0001071  93.0129 267.0985 15.08838596 28767,6917.885,95.438,540.491,539.009,0.0
53401.0,STARLINK-4525,PAYLOAD,2023-02-13 03:58:53,15.08821246,0.0001313,53.2151,114.3558,105.8881,254.2256,5.7785e-05,6.31e-06,0.0,0 STARLINK-4525,1 53401U 22097P   23044.16590057  .00000631  00000-0  57785-4 0  9995,2 53401  53.2151 114.3558 0001313 105.8881 254.2256 15.08821246 28865,6917.938,95.439,540.711,538.894,0.0
53401.0,STARLINK-4525,PAYLOAD,2023-02-13 07:09:39,15.08829811,0.0001392,53.2151,113.7617,107.3996,252.7149,0.00016885,2.4e-05,0.0,0 STARLINK-4525,1 53401U 22097P   23044.29837749  .00002400  00000-0  16885-3 0  9992,2 53401  53.2151 113.7617 0001392 107.3996 252.7149 15.08829811 28887,6917.912,95.438,540.74,538.814,0.0
53401.0,STARLINK-4525,PAYLOAD,2023-02-14 13:21:59,15.08834849,0.0001286,53.2158,108.1108,99.8666,260.2471,0.00020817,3.026e-05,0.0,0 STARLINK-4525,1 53401U 22097P   23045.55694145  .00003026  00000-0  20817-3 0  9998,2 53401  53.2158 108.1108 0001286  99.8666 260.2471 15.08834849 29563,6917.896,95.438,540.651,538.871,0.0
53401.0,STARLINK-4525,PAYLOAD,2023-02-15 13:12:45,15.08842618,0.0001692,53.216,103.6458,126.3486,233.7662,0.00033041,4.975e-05,0.0,0 STARLINK-4525,1 53401U 22097P   23046.55053219  .00004975  00000-0  33041-3 0  9997,2 53401  53.2160 103.6458 0001692 126.3486 233.7662 15.08842618 29224,6917.872,95.437,540.908,538.567,0.0
53401.0,STARLINK-4525,PAYLOAD,2023-02-16 13:03:31,15.088702,0.0001179,53.2146,99.1882,97.4098,262.7028,0.00042234,6.446e-05,0.0,0 STARLINK-4525,1 53401U 22097P   23047.54411655  .00006446  00000-0  42234-3 0  9998,2 53401  53.2146  99.1882 0001179  97.4098 262.7028 15.08870200 29377,6917.788,95.436,540.469,538.837,0.0
53401.0,STARLINK-4525,PAYLOAD,2023-02-16 22:35:51,15.08834752,0.0001003,53.2146,97.404,112.8786,247.2312,-8.2848e-05,-1.606e-05,0.0,0 STARLINK-4525,1 53401U 22097P   23047.94157215 -.00001606  00000-0 -82848-4 0  9992,2 53401  53.2146  97.4040 0001003 112.8786 247.2312 15.08834752 29439,6917.896,95.438,540.455,539.068,0.0
53401.0,STARLINK-4525,PAYLOAD,2023-02-17 03:22:02,15.08819315,5.36e-05,53.2172,96.5174,29.2432,330.8591,-0.00026965,-4.574e-05,0.0,0 STARLINK-4525,1 53401U 22097P   23048.14030246 -.00004574  00000-0 -26965-3 0  9993,2 53401  53.2172  96.5174 0000536  29.2432 330.8591 15.08819315 29464,6917.944,95.439,540.179,539.438,0.0
53401.0,STARLINK-4525,PAYLOAD,2023-02-17 09:43:34,15.08823318,0.0001384,53.2155,95.3254,113.4243,246.6895,-0.00021911,-3.772e-05,0.0,0 STARLINK-4525,1 53401U 22097P   23048.40526163 -.00003772  00000-0 -21911-3 0  9995,2 53401  53.2155  95.3254 0001384 113.4243 246.6895 15.08823318 29503,6917.931,95.439,540.754,538.839,0.0
53401.0,STARLINK-4525,PAYLOAD,2023-02-18 11:09:45,15.08833296,0.0001098,53.2158,90.5689,100.8344,259.2772,-0.00014891,-2.656e-05,0.0,0 STARLINK-4525,1 53401U 22097P   23049.46510569 -.00002656  00000-0 -14891-3 0  9994,2 53401  53.2158  90.5689 0001098 100.8344 259.2772 15.08833296 29666,6917.901,95.438,540.525,539.006,0.0
53401.0,STARLINK-4525,PAYLOAD,2023-02-18 12:45:08,15.08834344,0.0001056,53.215,90.2686,97.2854,262.8259,-6.677e-05,-1.35e-05,0.0,0 STARLINK-4525,1 53401U 22097P   23049.53134575 -.00001350  00000-0 -66770-4 0  9995,2 53401  53.2150  90.2686 0001056  97.2854 262.8259 15.08834344 30163,6917.898,95.438,540.493,539.032,0.0
53401.0,STARLINK-4525,PAYLOAD,2023-02-19 12:35:55,15.0884446,0.0001022,53.2151,85.8076,103.9449,256.1656,0.00048122,7.38e-05,0.0,0 STARLINK-4525,1 53401U 22097P   23050.52494794  .00007380  00000-0  48122-3 0  9995,2 53401  53.2151  85.8076 0001022 103.9449 256.1656 15.08844460 29823,6917.867,95.437,540.439,539.025,0.0
53401.0,STARLINK-4525,PAYLOAD,2023-02-20 12:26:42,15.08852581,0.0001432,53.2164,81.3467,79.4688,280.6465,0.00035201,5.321e-05,0.0,0 STARLINK-4525,1 53401U 22097P   23051.51854274  .00005321  00000-0  35201-3 0  9995,2 53401  53.2164  81.3467 0001432  79.4688 280.6465 15.08852581 30464,6917.842,95.437,540.698,538.716,0.0
53401.0,STARLINK-4525,PAYLOAD,2023-02-20 23:34:24,15.08836707,0.0001182,53.2142,79.2651,92.1191,267.9937,-0.00014051,-2.523e-05,0.0,0 STARLINK-4525,1 53401U 22097P   23051.98222607 -.00002523  00000-0 -14051-3 0  9998,2 53401  53.2142  79.2651 0001182  92.1191 267.9937 15.08836707 30042,6917.89,95.438,540.573,538.938,0.0
53401.0,STARLINK-4525,PAYLOAD,2023-02-21 10:42:05,15.08849193,0.0001256,53.2149,77.1841,95.8649,264.2486,0.00010217,1.339e-05,0.0,0 STARLINK-4525,1 53401U 22097P   23052.44590164  .00001339  00000-0  10217-3 0  9998,2 53401  53.2149  77.1841 0001256  95.8649 264.2486 15.08849193 30117,6917.852,95.437,540.586,538.848,0.0
53401.0,STARLINK-4525,PAYLOAD,2023-02-21 18:39:01,15.08846039,0.0001209,53.2148,75.6962,88.9016,271.2115,5.0873e-05,5.22e-06,0.0,0 STARLINK-4525,1 53401U 22097P   23052.77710239  .00000522  00000-0  50873-4 0  9997,2 53401  53.2148  75.6962 0001209  88.9016 271.2115 15.08846039 30654,6917.862,95.437,540.563,538.891,0.0
53401.0,STARLINK-4525,PAYLOAD,2023-02-22 02:35:57,15.08840027,0.0001055,53.2148,74.2089,89.9012,270.2101,8.2824e-05,1.031e-05,0.0,0 STARLINK-4525,1 53401U 22097P   23053.10830540  .00001031  00000-0  82824-4 0  9990,2 53401  53.2148  74.2089 0001055  89.9012 270.2101 15.08840027 30212,6917.88,95.438,540.475,539.015,0.0
53401.0,STARLINK-4525,PAYLOAD,2023-02-22 10:32:53,15.08845023,0.0001391,53.2141,72.7232,117.8966,242.2167,0.00038424,5.833e-05,0.0,0 STARLINK-4525,1 53401U 22097P   23053.43950317  .00005833  00000-0  38424-3 0  9991,2 53401  53.2141  72.7232 0001391 117.8966 242.2167 15.08845023 30751,6917.865,95.437,540.692,538.768,0.0
53401.0,STARLINK-4525,PAYLOAD,2023-02-22 21:40:35,15.08833212,0.000136,53.2143,70.6412,91.746,268.3688,4.9141e-05,4.94e-06,0.0,0 STARLINK-4525,1 53401U 22097P   23053.90318949  .00000494  00000-0  49141-4 0  9999,2 53401  53.2143  70.6412 0001360  91.7460 268.3688 15.08833212 30827,6917.901,95.438,540.707,538.825,0.0
53401.0,STARLINK-4525,PAYLOAD,2023-02-23 05:37:31,15.08834595,0.000129,53.2153,69.1533,90.6815,269.4325,0.00010613,1.401e-05,0.0,0 STARLINK-4525,1 53401U 22097P   23054.23439197  .00001401  00000-0  10613-3 0  9995,2 53401  53.2153  69.1533 0001290  90.6815 269.4325 15.08834595 30385,6917.897,95.438,540.654,538.87,0.0
53401.0,STARLINK-4525,PAYLOAD,2023-02-23 07:12:54,15.08837395,0.0001256,53.2153,68.8562,94.1404,265.9732,0.00010958,1.456e-05,0.0,0 STARLINK-4525,1 53401U 22097P   23054.30063058  .00001456  00000-0  10958-3 0  9994,2 53401  53.2153  68.8562 0001256  94.1404 265.9732 15.08837395 30887,6917.888,95.438,540.622,538.884,0.0
53401.0,STARLINK-4525,PAYLOAD,2023-02-23 21:31:22,15.08840638,0.000133,53.2151,66.1797,89.8017,270.3128,0.0001793,2.567e-05,0.0,0 STARLINK-4525,1 53401U 22097P   23054.89679040  .00002567  00000-0  17930-3 0  9993,2 53401  53.2151  66.1797 0001330  89.8017 270.3128 15.08840638 30973,6917.878,95.438,540.664,538.823,0.0
53401.0,STARLINK-4525,PAYLOAD,2023-02-24 05:28:18,15.08850288,0.0001342,53.2153,64.6931,90.749,269.3656,0.00037776,5.731e-05,0.0,0 STARLINK-4525,1 53401U 22097P   23055.22798734  .00005731  00000-0  37776-3 0  9999,2 53401  53.2153  64.6931 0001342  90.7490 269.3656 15.08850288 30535,6917.849,95.437,540.642,538.786,0.0
